EUTELSAT 8 WEST B       
1 40875U 15039B   26018.93752173 -.00000051  00000+0  00000+0 0  9991
2 40875   0.0638   3.1437 0004091 294.9521 149.7570  1.00270516 38160
EUTELSAT 9B             
1 41310U 16005A   26018.94081508  .00000076  00000+0  00000+0 0  9994
2 41310   0.0399  66.0207 0004338 227.4151 172.5725  1.00272411 36627
EUTELSAT 65 WEST A      
1 41382U 16014A   26018.92616833 -.00000261  00000+0  00000+0 0  9993
2 41382   0.0862 300.2326 0002058 356.9495  89.3560  1.00273497 36034
EUTELSAT 117 WEST B     
1 41589U 16038B   26018.70196029  .00000004  00000+0  00000+0 0  9998
2 41589   0.0032 102.2807 0000367 252.2360 259.2789  1.00271048 35160
EUTELSAT 172B           
1 42741U 17029B   26018.90181485  .00000009  00000+0  00000+0 0  9997
2 42741   0.0280 121.7208 0000236   5.3066 127.9142  1.00270861 32233
EUTELSAT 7C             
1 44334U 19034B   26018.94046841  .00000063  00000+0  00000+0 0  9995
2 44334   0.0781 185.6531 0003047  99.1067 179.1351  1.00270610  5336
EUTELSAT 5 WEST B       
1 44624U 19067A   26018.93812839 -.00000027  00000+0  00000+0 0  9991
2 44624   0.0833 316.6087 0002950 346.3288 148.1147  1.00271508 22944
EUTELSAT KONNECT        
1 45027U 20005B   26018.94046841  .00000064  00000+0  00000+0 0  9996
2 45027   0.0662  94.1790 0001184 181.9967 187.9244  1.00271334 22841
